{
  "type": "FeatureCollection",
  "features": [
    {
      "type": "Feature",
      "properties": {
        "norad_id": 41581,
        "name": "INTELSAT 31 (IS-31)",
        "group": "intelsat",
        "lat": -0.026842667775371726,
        "lon": -141.7061034093964,
        "alt_km": 35778.938166110056,
        "timestamp": "2025-12-08T15:42:49.446465+00:00",
        "meta_object_name": "INTELSAT 31 (IS-31)",
        "meta_object_id": "2016-035A",
        "meta_epoch": "2025-12-08T06:04:13.177056",
        "meta_mean_motion": 1.00268431,
        "meta_eccentricity": 0.0001922,
        "meta_inclination": 0.021,
        "meta_ra_of_asc_node": 269.7076,
        "meta_arg_of_pericenter": 310.8564,
        "meta_mean_anomaly": 212.6932,
        "meta_ephemeris_type": 0,
        "meta_classification_type": "U",
        "meta_norad_cat_id": 41581,
        "meta_element_set_no": 999,
        "meta_rev_at_epoch": 3476,
        "meta_bstar": 0,
        "meta_mean_motion_dot": -1.48e-06,
        "meta_mean_motion_ddot": 0,
        "tle_line1": "1 41581U 16035A   25342.25293029 -.00000148  00000+0  00000+0 0  9994",
        "tle_line2": "2 41581   0.0210 269.7076 0001922 310.8564 212.6932  1.00268431 34762"
      },
      "geometry": {
        "type": "Point",
        "coordinates": [
          -141.7061034093964,
          -0.026842667775371726
        ]
      }
    },
    {
      "type": "Feature",
      "properties": {
        "norad_id": 41747,
        "name": "INTELSAT 36 (IS-36)",
        "group": "intelsat",
        "lat": 0.0202275212453731,
        "lon": 21.88029246338973,
        "alt_km": 35783.71150657494,
        "timestamp": "2025-12-08T15:42:49.446476+00:00",
        "meta_object_name": "INTELSAT 36 (IS-36)",
        "meta_object_id": "2016-053A",
        "meta_epoch": "2025-12-08T03:39:17.243424",
        "meta_mean_motion": 1.0027228,
        "meta_eccentricity": 0.00015294,
        "meta_inclination": 0.0115,
        "meta_ra_of_asc_node": 347.1114,
        "meta_arg_of_pericenter": 325.115,
        "meta_mean_anomaly": 248.2617,
        "meta_ephemeris_type": 0,
        "meta_classification_type": "U",
        "meta_norad_cat_id": 41747,
        "meta_element_set_no": 999,
        "meta_rev_at_epoch": 3403,
        "meta_bstar": 0,
        "meta_mean_motion_dot": -2.2e-07,
        "meta_mean_motion_ddot": 0,
        "tle_line1": "1 41747U 16053A   25342.15228291 -.00000022  00000+0  00000+0 0  9997",
        "tle_line2": "2 41747   0.0115 347.1114 0001529 325.1150 248.2617  1.00272280 34039"
      },
      "geometry": {
        "type": "Point",
        "coordinates": [
          21.88029246338973,
          0.0202275212453731
        ]
      }
    },
    {
      "type": "Feature",
      "properties": {
        "norad_id": 41945,
        "name": "INTELSAT 32E (IS-32E)",
        "group": "intelsat",
        "lat": -0.025112843265657412,
        "lon": -89.81660847135934,
        "alt_km": 35785.60686168982,
        "timestamp": "2025-12-08T15:42:49.446488+00:00",
        "meta_object_name": "INTELSAT 32E (IS-32E)",
        "meta_object_id": "2017-007B",
        "meta_epoch": "2025-12-08T06:33:00.604224",
        "meta_mean_motion": 1.0027176,
        "meta_eccentricity": 2.919e-05,
        "meta_inclination": 0.0272,
        "meta_ra_of_asc_node": 67.8418,
        "meta_arg_of_pericenter": 266.9052,
        "meta_mean_anomaly": 157.6142,
        "meta_ephemeris_type": 0,
        "meta_classification_type": "U",
        "meta_norad_cat_id": 41945,
        "meta_element_set_no": 999,
        "meta_rev_at_epoch": 3231,
        "meta_bstar": 0,
        "meta_mean_motion_dot": -2.66e-06,
        "meta_mean_motion_ddot": 0,
        "tle_line1": "1 41945U 17007B   25342.27292366 -.00000266  00000+0  00000+0 0  9994",
        "tle_line2": "2 41945   0.0272  67.8418 0000291 266.9052 157.6142  1.00271760 32311"
      },
      "geometry": {
        "type": "Point",
        "coordinates": [
          -89.81660847135934,
          -0.025112843265657412
        ]
      }
    },
    {
      "type": "Feature",
      "properties": {
        "norad_id": 42818,
        "name": "INTELSAT 35E (IS-35E)",
        "group": "intelsat",
        "lat": -0.03088091964522089,
        "lon": -81.12942867200319,
        "alt_km": 35777.138699695635,
        "timestamp": "2025-12-08T15:42:49.446499+00:00",
        "meta_object_name": "INTELSAT 35E (IS-35E)",
        "meta_object_id": "2017-041A",
        "meta_epoch": "2025-12-08T06:35:30.364800",
        "meta_mean_motion": 1.00269509,
        "meta_eccentricity": 0.0002351,
        "meta_inclination": 0.0174,
        "meta_ra_of_asc_node": 326.6076,
        "meta_arg_of_pericenter": 297.3306,
        "meta_mean_anomaly": 237.7291,
        "meta_ephemeris_type": 0,
        "meta_classification_type": "U",
        "meta_norad_cat_id": 42818,
        "meta_element_set_no": 999,
        "meta_rev_at_epoch": 3090,
        "meta_bstar": 0,
        "meta_mean_motion_dot": -2.36e-06,
        "meta_mean_motion_ddot": 0,
        "tle_line1": "1 42818U 17041A   25342.27465700 -.00000236  00000+0  00000+0 0  9993",
        "tle_line2": "2 42818   0.0174 326.6076 0002351 297.3306 237.7291  1.00269509 30903"
      },
      "geometry": {
        "type": "Point",
        "coordinates": [
          -81.12942867200319,
          -0.03088091964522089
        ]
      }
    },
    {
      "type": "Feature",
      "properties": {
        "norad_id": 42950,
        "name": "INTELSAT 37E (IS-37E)",
        "group": "intelsat",
        "lat": -0.029499077262137435,
        "lon": -64.61375480676794,
        "alt_km": 35775.58918160438,
        "timestamp": "2025-12-08T15:42:49.446511+00:00",
        "meta_object_name": "INTELSAT 37E (IS-37E)",
        "meta_object_id": "2017-059A",
        "meta_epoch": "2025-12-08T06:40:14.911104",
        "meta_mean_motion": 1.00270744,
        "meta_eccentricity": 0.00034224,
        "meta_inclination": 0.0159,
        "meta_ra_of_asc_node": 349.2453,
        "meta_arg_of_pericenter": 264.2534,
        "meta_mean_anomaly": 265.8521,
        "meta_ephemeris_type": 0,
        "meta_classification_type": "U",
        "meta_norad_cat_id": 42950,
        "meta_element_set_no": 999,
        "meta_rev_at_epoch": 3015,
        "meta_bstar": 0,
        "meta_mean_motion_dot": -1.38e-06,
        "meta_mean_motion_ddot": 0,
        "tle_line1": "1 42950U 17059A   25342.27795036 -.00000138  00000+0  00000+0 0  9998",
        "tle_line2": "2 42950   0.0159 349.2453 0003422 264.2534 265.8521  1.00270744 30157"
      },
      "geometry": {
        "type": "Point",
        "coordinates": [
          -64.61375480676794,
          -0.029499077262137435
        ]
      }
    },
    {
      "type": "Feature",
      "properties": {
        "norad_id": 43632,
        "name": "AZERSPACE 2 (IS-38)",
        "group": "intelsat",
        "lat": 0.01493735959272748,
        "lon": -1.511404753688827,
        "alt_km": 35787.92213677901,
        "timestamp": "2025-12-08T15:42:49.446522+00:00",
        "meta_object_name": "AZERSPACE 2 (IS-38)",
        "meta_object_id": "2018-074A",
        "meta_epoch": "2025-12-08T06:07:21.523008",
        "meta_mean_motion": 1.0026972,
        "meta_eccentricity": 0.00015919,
        "meta_inclination": 0.0173,
        "meta_ra_of_asc_node": 332.871,
        "meta_arg_of_pericenter": 284.369,
        "meta_mean_anomaly": 316.9779,
        "meta_ephemeris_type": 0,
        "meta_classification_type": "U",
        "meta_norad_cat_id": 43632,
        "meta_element_set_no": 999,
        "meta_rev_at_epoch": 2653,
        "meta_bstar": 0,
        "meta_mean_motion_dot": 1.39e-06,
        "meta_mean_motion_ddot": 0,
        "tle_line1": "1 43632U 18074A   25342.25511022  .00000139  00000+0  00000+0 0  9993",
        "tle_line2": "2 43632   0.0173 332.8710 0001591 284.3690 316.9779  1.00269720 26538"
      },
      "geometry": {
        "type": "Point",
        "coordinates": [
          -1.511404753688827,
          0.01493735959272748
        ]
      }
    },
    {
      "type": "Feature",
      "properties": {
        "norad_id": 43633,
        "name": "HORIZONS-3E",
        "group": "intelsat",
        "lat": -0.011924341423580674,
        "lon": 122.36660776372287,
        "alt_km": 35791.63422582922,
        "timestamp": "2025-12-08T15:42:49.446534+00:00",
        "meta_object_name": "HORIZONS-3E",
        "meta_object_id": "2018-074B",
        "meta_epoch": "2025-12-08T02:25:24.320352",
        "meta_mean_motion": 1.00268903,
        "meta_eccentricity": 0.00012308,
        "meta_inclination": 0.0431,
        "meta_ra_of_asc_node": 177.3219,
        "meta_arg_of_pericenter": 101.283,
        "meta_mean_anomaly": 3.8771,
        "meta_ephemeris_type": 0,
        "meta_classification_type": "U",
        "meta_norad_cat_id": 43633,
        "meta_element_set_no": 999,
        "meta_rev_at_epoch": 2642,
        "meta_bstar": 0,
        "meta_mean_motion_dot": -2.8e-07,
        "meta_mean_motion_ddot": 0,
        "tle_line1": "1 43633U 18074B   25342.10097593 -.00000028  00000+0  00000+0 0  9998",
        "tle_line2": "2 43633   0.0431 177.3219 0001230 101.2830   3.8771  1.00268903 26429"
      },
      "geometry": {
        "type": "Point",
        "coordinates": [
          122.36660776372287,
          -0.011924341423580674
        ]
      }
    }
  ]
}